[{"OBJECT_NAME":"FLOCK 4BE-24","OBJECT_ID":"2024-149AP","EPOCH":"2026-04-27T05:32:46.172544","MEAN_MOTION":15.41166118,"ECCENTRICITY":0.00054452,"INCLINATION":97.3721,"RA_OF_ASC_NODE":201.1027,"ARG_OF_PERICENTER":113.7855,"MEAN_ANOMALY":246.3963,"EPHEMERIS_TYPE":0,"CLASSIFICATION_TYPE":"U","NORAD_CAT_ID":60505,"ELEMENT_SET_NO":999,"REV_AT_EPOCH":9451,"BSTAR":0.00059623548,"MEAN_MOTION_DOT":0.00024694,"MEAN_MOTION_DDOT":0},{"OBJECT_NAME":"TANAGER-1","OBJECT_ID":"2024-149AR","EPOCH":"2026-04-27T05:47:58.089120","MEAN_MOTION":15.4430794,"ECCENTRICITY":0.0007512,"INCLINATION":97.3444,"RA_OF_ASC_NODE":211.2398,"ARG_OF_PERICENTER":125.6387,"MEAN_ANOMALY":234.5562,"EPHEMERIS_TYPE":0,"CLASSIFICATION_TYPE":"U","NORAD_CAT_ID":60507,"ELEMENT_SET_NO":999,"REV_AT_EPOCH":9517,"BSTAR":0.00034296561,"MEAN_MOTION_DOT":0.00015733,"MEAN_MOTION_DDOT":0},{"OBJECT_NAME":"FLOCK 4BE-29","OBJECT_ID":"2024-149AT","EPOCH":"2026-04-27T05:11:26.579040","MEAN_MOTION":15.42459737,"ECCENTRICITY":0.00042832,"INCLINATION":97.3808,"RA_OF_ASC_NODE":202.3902,"ARG_OF_PERICENTER":118.9679,"MEAN_ANOMALY":241.1998,"EPHEMERIS_TYPE":0,"CLASSIFICATION_TYPE":"U","NORAD_CAT_ID":60509,"ELEMENT_SET_NO":999,"REV_AT_EPOCH":9455,"BSTAR":0.00052097547,"MEAN_MOTION_DOT":0.00022505,"MEAN_MOTION_DDOT":0},{"OBJECT_NAME":"FLOCK 4BE-2","OBJECT_ID":"2024-149AV","EPOCH":"2026-04-27T04:31:19.170048","MEAN_MOTION":15.47685709,"ECCENTRICITY":0.00047348,"INCLINATION":97.3817,"RA_OF_ASC_NODE":203.2427,"ARG_OF_PERICENTER":120.2447,"MEAN_ANOMALY":239.9273,"EPHEMERIS_TYPE":0,"CLASSIFICATION_TYPE":"U","NORAD_CAT_ID":60511,"ELEMENT_SET_NO":999,"REV_AT_EPOCH":9460,"BSTAR":0.00114829,"MEAN_MOTION_DOT":0.00059655,"MEAN_MOTION_DDOT":0},{"OBJECT_NAME":"FLOCK 4BE-13","OBJECT_ID":"2024-149AW","EPOCH":"2026-04-27T04:30:12.965184","MEAN_MOTION":15.40491833,"ECCENTRICITY":0.0005543,"INCLINATION":97.3721,"RA_OF_ASC_NODE":201.1247,"ARG_OF_PERICENTER":98.7559,"MEAN_ANOMALY":261.4315,"EPHEMERIS_TYPE":0,"CLASSIFICATION_TYPE":"U","NORAD_CAT_ID":60512,"ELEMENT_SET_NO":999,"REV_AT_EPOCH":9451,"BSTAR":0.00048106303,"MEAN_MOTION_DOT":0.00019456,"MEAN_MOTION_DDOT":0},{"OBJECT_NAME":"FLOCK 4BE-27","OBJECT_ID":"2024-149AX","EPOCH":"2026-04-27T04:23:48.127488","MEAN_MOTION":15.33552583,"ECCENTRICITY":0.0005563,"INCLINATION":97.3829,"RA_OF_ASC_NODE":199.0454,"ARG_OF_PERICENTER":119.2651,"MEAN_ANOMALY":240.9148,"EPHEMERIS_TYPE":0,"CLASSIFICATION_TYPE":"U","NORAD_CAT_ID":60513,"ELEMENT_SET_NO":999,"REV_AT_EPOCH":9432,"BSTAR":0.00036931384,"MEAN_MOTION_DOT":0.0001191,"MEAN_MOTION_DDOT":0},{"OBJECT_NAME":"FLOCK 4BE-9","OBJECT_ID":"2024-149AY","EPOCH":"2026-04-27T05:06:48.081600","MEAN_MOTION":15.39250359,"ECCENTRICITY":0.0004479,"INCLINATION":97.3792,"RA_OF_ASC_NODE":201.0524,"ARG_OF_PERICENTER":120.7922,"MEAN_ANOMALY":239.3765,"EPHEMERIS_TYPE":0,"CLASSIFICATION_TYPE":"U","NORAD_CAT_ID":60514,"ELEMENT_SET_NO":999,"REV_AT_EPOCH":9447,"BSTAR":0.00051885044,"MEAN_MOTION_DOT":0.0002015,"MEAN_MOTION_DDOT":0},{"OBJECT_NAME":"FLOCK 4BE-6","OBJECT_ID":"2024-149BA","EPOCH":"2026-04-27T04:53:30.505056","MEAN_MOTION":15.38171463,"ECCENTRICITY":0.00052336,"INCLINATION":97.379,"RA_OF_ASC_NODE":200.4922,"ARG_OF_PERICENTER":119.116,"MEAN_ANOMALY":241.061,"EPHEMERIS_TYPE":0,"CLASSIFICATION_TYPE":"U","NORAD_CAT_ID":60516,"ELEMENT_SET_NO":999,"REV_AT_EPOCH":9443,"BSTAR":0.00044245184,"MEAN_MOTION_DOT":0.00016571,"MEAN_MOTION_DDOT":0},{"OBJECT_NAME":"FLOCK 4BE-14","OBJECT_ID":"2024-149BB","EPOCH":"2026-04-27T03:59:26.072736","MEAN_MOTION":15.39410147,"ECCENTRICITY":0.00061818,"INCLINATION":97.3697,"RA_OF_ASC_NODE":200.552,"ARG_OF_PERICENTER":118.9451,"MEAN_ANOMALY":241.2416,"EPHEMERIS_TYPE":0,"CLASSIFICATION_TYPE":"U","NORAD_CAT_ID":60517,"ELEMENT_SET_NO":999,"REV_AT_EPOCH":9447,"BSTAR":0.00055199403,"MEAN_MOTION_DOT":0.00021566,"MEAN_MOTION_DDOT":0},{"OBJECT_NAME":"FLOCK 4BE-1","OBJECT_ID":"2024-149BC","EPOCH":"2026-04-27T05:35:53.622528","MEAN_MOTION":15.40901795,"ECCENTRICITY":0.00057216,"INCLINATION":97.3781,"RA_OF_ASC_NODE":201.7204,"ARG_OF_PERICENTER":119.3775,"MEAN_ANOMALY":240.8043,"EPHEMERIS_TYPE":0,"CLASSIFICATION_TYPE":"U","NORAD_CAT_ID":60518,"ELEMENT_SET_NO":999,"REV_AT_EPOCH":9452,"BSTAR":0.00056960908,"MEAN_MOTION_DOT":0.0002338,"MEAN_MOTION_DDOT":0},{"OBJECT_NAME":"FLOCK 4BE-28","OBJECT_ID":"2024-149BD","EPOCH":"2026-04-27T04:37:17.323104","MEAN_MOTION":15.431043,"ECCENTRICITY":0.00057901,"INCLINATION":97.3747,"RA_OF_ASC_NODE":202.2493,"ARG_OF_PERICENTER":114.8509,"MEAN_ANOMALY":245.3341,"EPHEMERIS_TYPE":0,"CLASSIFICATION_TYPE":"U","NORAD_CAT_ID":60519,"ELEMENT_SET_NO":999,"REV_AT_EPOCH":9457,"BSTAR":0.00053371762,"MEAN_MOTION_DOT":0.0002357,"MEAN_MOTION_DDOT":0},{"OBJECT_NAME":"FLOCK 4BE-35","OBJECT_ID":"2024-149CU","EPOCH":"2026-04-26T20:05:38.374080","MEAN_MOTION":15.54311538,"ECCENTRICITY":0.0004119,"INCLINATION":97.3715,"RA_OF_ASC_NODE":201.1228,"ARG_OF_PERICENTER":153.4042,"MEAN_ANOMALY":206.7423,"EPHEMERIS_TYPE":0,"CLASSIFICATION_TYPE":"U","NORAD_CAT_ID":60558,"ELEMENT_SET_NO":999,"REV_AT_EPOCH":9445,"BSTAR":0.0020239,"MEAN_MOTION_DOT":0.00134296,"MEAN_MOTION_DDOT":0},{"OBJECT_NAME":"FLOCK 4BE-5","OBJECT_ID":"2024-149CV","EPOCH":"2026-04-27T04:46:57.130176","MEAN_MOTION":15.38784147,"ECCENTRICITY":0.00048393,"INCLINATION":97.3844,"RA_OF_ASC_NODE":200.7686,"ARG_OF_PERICENTER":120.2061,"MEAN_ANOMALY":239.9664,"EPHEMERIS_TYPE":0,"CLASSIFICATION_TYPE":"U","NORAD_CAT_ID":60559,"ELEMENT_SET_NO":999,"REV_AT_EPOCH":9443,"BSTAR":0.00051121163,"MEAN_MOTION_DOT":0.00019552,"MEAN_MOTION_DDOT":0},{"OBJECT_NAME":"FLOCK 4BE-12","OBJECT_ID":"2024-149CW","EPOCH":"2026-04-27T04:17:40.519680","MEAN_MOTION":15.60210361,"ECCENTRICITY":0.00043187,"INCLINATION":97.3675,"RA_OF_ASC_NODE":202.4886,"ARG_OF_PERICENTER":169.8324,"MEAN_ANOMALY":190.3021,"EPHEMERIS_TYPE":0,"CLASSIFICATION_TYPE":"U","NORAD_CAT_ID":60560,"ELEMENT_SET_NO":999,"REV_AT_EPOCH":9459,"BSTAR":0.0027498736,"MEAN_MOTION_DOT":0.00229885,"MEAN_MOTION_DDOT":0},{"OBJECT_NAME":"FLOCK 4BE-3","OBJECT_ID":"2024-149CX","EPOCH":"2026-04-27T05:31:01.315776","MEAN_MOTION":15.39978703,"ECCENTRICITY":0.00058647,"INCLINATION":97.3697,"RA_OF_ASC_NODE":200.7164,"ARG_OF_PERICENTER":114.1348,"MEAN_ANOMALY":246.0512,"EPHEMERIS_TYPE":0,"CLASSIFICATION_TYPE":"U","NORAD_CAT_ID":60561,"ELEMENT_SET_NO":999,"REV_AT_EPOCH":9449,"BSTAR":0.0006059661,"MEAN_MOTION_DOT":0.00024135,"MEAN_MOTION_DDOT":0},{"OBJECT_NAME":"FLOCK 4BE-19","OBJECT_ID":"2024-149CZ","EPOCH":"2026-04-27T05:29:23.576640","MEAN_MOTION":15.4238427,"ECCENTRICITY":0.00057251,"INCLINATION":97.374,"RA_OF_ASC_NODE":202.0189,"ARG_OF_PERICENTER":115.6484,"MEAN_ANOMALY":244.5355,"EPHEMERIS_TYPE":0,"CLASSIFICATION_TYPE":"U","NORAD_CAT_ID":60563,"ELEMENT_SET_NO":999,"REV_AT_EPOCH":9456,"BSTAR":0.00056901063,"MEAN_MOTION_DOT":0.00024538,"MEAN_MOTION_DDOT":0}]
